ONEWEB-0037             
1 45440U 20020S   23280.34330158  .00000719  00000+0  19939-2 0  9992
2 45440  87.8980 216.4783 0002050  85.6424 274.4939 13.11417120173747
ONEWEB-0042             
1 45441U 20020T   23280.91667824 -.00038652  00000+0 -10951+0 0  9990
2 45441  87.8975 216.3861 0002098  81.0732  67.8301 13.11441881173795
ONEWEB-0098             
1 45442U 20020U   23280.80271330  .00000280  00000+0  75319-3 0  9999
2 45442  87.8986 216.4115 0002043  68.3047 291.8299 13.11397290173753
ONEWEB-0055             
1 45443U 20020V   23280.56161404 -.00000160  00000+0 -48703-3 0  9999
2 45443  87.8986 216.4635 0002041  73.0445 287.0906 13.11417589173693
ONEWEB-0093             
1 45444U 20020W   23280.53485382 -.00000199  00000+0 -59649-3 0  9994
2 45444  87.8973 216.4531 0002243  70.3638 289.7732 13.11412231173755
ONEWEB-0029             
1 45445U 20020X   23280.55429952 -.00001239  00000+0 -35318-2 0  9990
2 45445  87.8984 216.4574 0002153  80.8823 279.2549 13.11421201173732
ONEWEB-0068             
1 45446U 20020Y   23280.52917890  .00001009  00000+0  28112-2 0  9998
2 45446  87.8975 216.4526 0002303  72.4750 287.6630 13.11416882173679
ONEWEB-0046             
1 45447U 20020Z   23280.37412194 -.00000767  00000+0 -21991-2 0  9999
2 45447  87.8973 216.4958 0001888  86.2380 273.8964 13.11416940173667
